{"fetched_at":"2026-07-09T07:59:47.838Z","source":"https://celestrak.org/NORAD/elements/gp.php?GROUP=spire&FORMAT=JSON","constellation":"spire","records":[{"OBJECT_NAME":"LEMUR-2-LEIA-PHILIP","OBJECT_ID":"2025-052AN","EPOCH":"2026-07-08T15:42:43.071552","CLASSIFICATION_TYPE":"U","MEAN_MOTION":14.97380709,"ECCENTRICITY":0.00049616,"INCLINATION":97.6816,"RA_OF_ASC_NODE":81.242,"ARG_OF_PERICENTER":135.3701,"MEAN_ANOMALY":224.7921,"EPHEMERIS_TYPE":0,"NORAD_CAT_ID":63246,"ELEMENT_SET_NO":999,"REV_AT_EPOCH":7188,"BSTAR":0.00015163599,"MEAN_MOTION_DOT":0.00001704,"MEAN_MOTION_DDOT":0},{"OBJECT_NAME":"LEMUR-2-LIA-MARTIN","OBJECT_ID":"2025-052AQ","EPOCH":"2026-07-08T15:38:47.928768","CLASSIFICATION_TYPE":"U","MEAN_MOTION":14.97991386,"ECCENTRICITY":0.00053407,"INCLINATION":97.6868,"RA_OF_ASC_NODE":81.7463,"ARG_OF_PERICENTER":106.1828,"MEAN_ANOMALY":253.9982,"EPHEMERIS_TYPE":0,"NORAD_CAT_ID":63248,"ELEMENT_SET_NO":999,"REV_AT_EPOCH":7189,"BSTAR":0.00032627323,"MEAN_MOTION_DOT":0.00003795,"MEAN_MOTION_DDOT":0},{"OBJECT_NAME":"LEMUR-2-DELOITTE-1","OBJECT_ID":"2025-052BB","EPOCH":"2026-07-08T16:45:18.552960","CLASSIFICATION_TYPE":"U","MEAN_MOTION":14.97751965,"ECCENTRICITY":0.00023088,"INCLINATION":97.6884,"RA_OF_ASC_NODE":82.1233,"ARG_OF_PERICENTER":66.8273,"MEAN_ANOMALY":293.3192,"EPHEMERIS_TYPE":0,"NORAD_CAT_ID":63259,"ELEMENT_SET_NO":999,"REV_AT_EPOCH":7191,"BSTAR":0.00020556086,"MEAN_MOTION_DOT":0.00002354,"MEAN_MOTION_DDOT":0},{"OBJECT_NAME":"LEMUR-2-EMERSONROSE","OBJECT_ID":"2025-052BD","EPOCH":"2026-07-08T15:39:00.575136","CLASSIFICATION_TYPE":"U","MEAN_MOTION":14.9925091,"ECCENTRICITY":0.00027623,"INCLINATION":97.6876,"RA_OF_ASC_NODE":82.6763,"ARG_OF_PERICENTER":71.2958,"MEAN_ANOMALY":288.8564,"EPHEMERIS_TYPE":0,"NORAD_CAT_ID":63261,"ELEMENT_SET_NO":999,"REV_AT_EPOCH":7195,"BSTAR":0.00028348462,"MEAN_MOTION_DOT":0.00003399,"MEAN_MOTION_DDOT":0},{"OBJECT_NAME":"LEMUR-2-MARACHE-FRAN","OBJECT_ID":"2025-052BE","EPOCH":"2026-07-08T22:42:20.727936","CLASSIFICATION_TYPE":"U","MEAN_MOTION":15.00289249,"ECCENTRICITY":0.00045737,"INCLINATION":97.6855,"RA_OF_ASC_NODE":83.3255,"ARG_OF_PERICENTER":280.3591,"MEAN_ANOMALY":79.7117,"EPHEMERIS_TYPE":0,"NORAD_CAT_ID":63262,"ELEMENT_SET_NO":999,"REV_AT_EPOCH":7202,"BSTAR":0.00018602442,"MEAN_MOTION_DOT":0.00002271,"MEAN_MOTION_DDOT":0},{"OBJECT_NAME":"LEMUR-2-THEFALCONER","OBJECT_ID":"2025-052BG","EPOCH":"2026-07-08T22:16:29.794368","CLASSIFICATION_TYPE":"U","MEAN_MOTION":14.97543375,"ECCENTRICITY":0.00007565,"INCLINATION":97.685,"RA_OF_ASC_NODE":81.9463,"ARG_OF_PERICENTER":23.358,"MEAN_ANOMALY":336.7677,"EPHEMERIS_TYPE":0,"NORAD_CAT_ID":63264,"ELEMENT_SET_NO":999,"REV_AT_EPOCH":7194,"BSTAR":0.00020994058,"MEAN_MOTION_DOT":0.00002392,"MEAN_MOTION_DDOT":0},{"OBJECT_NAME":"LEMUR-2-UNTITLED-SC","OBJECT_ID":"2025-061A","EPOCH":"2026-07-08T21:44:07.652832","CLASSIFICATION_TYPE":"U","MEAN_MOTION":15.13619371,"ECCENTRICITY":0.00185515,"INCLINATION":97.5647,"RA_OF_ASC_NODE":165.1118,"ARG_OF_PERICENTER":184.5054,"MEAN_ANOMALY":175.6014,"EPHEMERIS_TYPE":0,"NORAD_CAT_ID":63351,"ELEMENT_SET_NO":999,"REV_AT_EPOCH":7087,"BSTAR":0.00011109842,"MEAN_MOTION_DOT":0.00001936,"MEAN_MOTION_DDOT":0},{"OBJECT_NAME":"LEMUR-2-ESPERANZA","OBJECT_ID":"2025-061B","EPOCH":"2026-07-08T21:09:15.083712","CLASSIFICATION_TYPE":"U","MEAN_MOTION":15.13727556,"ECCENTRICITY":0.00182344,"INCLINATION":97.5651,"RA_OF_ASC_NODE":165.1863,"ARG_OF_PERICENTER":183.8064,"MEAN_ANOMALY":176.3032,"EPHEMERIS_TYPE":0,"NORAD_CAT_ID":63352,"ELEMENT_SET_NO":999,"REV_AT_EPOCH":7087,"BSTAR":0.00016318816,"MEAN_MOTION_DOT":0.00002884,"MEAN_MOTION_DDOT":0},{"OBJECT_NAME":"LEMUR-2-KREMPEL-BRO2","OBJECT_ID":"2025-061C","EPOCH":"2026-07-08T21:39:07.241760","CLASSIFICATION_TYPE":"U","MEAN_MOTION":15.1415056,"ECCENTRICITY":0.0019338,"INCLINATION":97.5699,"RA_OF_ASC_NODE":165.7681,"ARG_OF_PERICENTER":176.4682,"MEAN_ANOMALY":183.669,"EPHEMERIS_TYPE":0,"NORAD_CAT_ID":63353,"ELEMENT_SET_NO":999,"REV_AT_EPOCH":7089,"BSTAR":0.00011407092,"MEAN_MOTION_DOT":0.00002021,"MEAN_MOTION_DDOT":0},{"OBJECT_NAME":"LEMUR-2-THERMORAPTOR","OBJECT_ID":"2025-061D","EPOCH":"2026-07-08T21:11:37.380192","CLASSIFICATION_TYPE":"U","MEAN_MOTION":15.14233684,"ECCENTRICITY":0.00190993,"INCLINATION":97.5706,"RA_OF_ASC_NODE":165.8289,"ARG_OF_PERICENTER":175.3605,"MEAN_ANOMALY":184.7807,"EPHEMERIS_TYPE":0,"NORAD_CAT_ID":63354,"ELEMENT_SET_NO":999,"REV_AT_EPOCH":7089,"BSTAR":0.00014017927,"MEAN_MOTION_DOT":0.00002504,"MEAN_MOTION_DDOT":0},{"OBJECT_NAME":"LEMUR-2-NEUROSPICY","OBJECT_ID":"2025-061E","EPOCH":"2026-07-08T22:03:34.821792","CLASSIFICATION_TYPE":"U","MEAN_MOTION":15.14352828,"ECCENTRICITY":0.00168279,"INCLINATION":97.5633,"RA_OF_ASC_NODE":165.4742,"ARG_OF_PERICENTER":178.1167,"MEAN_ANOMALY":182.0131,"EPHEMERIS_TYPE":0,"NORAD_CAT_ID":63355,"ELEMENT_SET_NO":999,"REV_AT_EPOCH":7090,"BSTAR":0.00011822799,"MEAN_MOTION_DOT":0.00002107,"MEAN_MOTION_DDOT":0},{"OBJECT_NAME":"LEMUR-2-TILLINFINITY","OBJECT_ID":"2025-061F","EPOCH":"2026-07-08T21:07:11.345088","CLASSIFICATION_TYPE":"U","MEAN_MOTION":15.14936063,"ECCENTRICITY":0.00184285,"INCLINATION":97.5618,"RA_OF_ASC_NODE":165.7409,"ARG_OF_PERICENTER":166.9103,"MEAN_ANOMALY":193.2611,"EPHEMERIS_TYPE":0,"NORAD_CAT_ID":63356,"ELEMENT_SET_NO":999,"REV_AT_EPOCH":7092,"BSTAR":0.00014913425,"MEAN_MOTION_DOT":0.00002722,"MEAN_MOTION_DDOT":0},{"OBJECT_NAME":"LEMUR-2-KREMPEL-BRO1","OBJECT_ID":"2025-061G","EPOCH":"2026-07-08T22:08:06.397728","CLASSIFICATION_TYPE":"U","MEAN_MOTION":15.14744684,"ECCENTRICITY":0.00190582,"INCLINATION":97.5618,"RA_OF_ASC_NODE":165.693,"ARG_OF_PERICENTER":167.9566,"MEAN_ANOMALY":192.2125,"EPHEMERIS_TYPE":0,"NORAD_CAT_ID":63357,"ELEMENT_SET_NO":999,"REV_AT_EPOCH":7092,"BSTAR":0.00011513717,"MEAN_MOTION_DOT":0.00002075,"MEAN_MOTION_DDOT":0},{"OBJECT_NAME":"LEMUR-2-LANGER2SPACE","OBJECT_ID":"2025-061H","EPOCH":"2026-07-08T21:17:24.242496","CLASSIFICATION_TYPE":"U","MEAN_MOTION":15.14437027,"ECCENTRICITY":0.00167413,"INCLINATION":97.5622,"RA_OF_ASC_NODE":165.4631,"ARG_OF_PERICENTER":176.6297,"MEAN_ANOMALY":183.505,"EPHEMERIS_TYPE":0,"NORAD_CAT_ID":63358,"ELEMENT_SET_NO":999,"REV_AT_EPOCH":7090,"BSTAR":0.00014570427,"MEAN_MOTION_DOT":0.00002619,"MEAN_MOTION_DDOT":0},{"OBJECT_NAME":"LEMUR-2-BALTO","OBJECT_ID":"2025-052BH","EPOCH":"2026-07-08T22:20:05.501472","CLASSIFICATION_TYPE":"U","MEAN_MOTION":15.00325727,"ECCENTRICITY":0.00055095,"INCLINATION":97.6931,"RA_OF_ASC_NODE":83.2927,"ARG_OF_PERICENTER":352.8014,"MEAN_ANOMALY":7.3129,"EPHEMERIS_TYPE":0,"NORAD_CAT_ID":63395,"ELEMENT_SET_NO":999,"REV_AT_EPOCH":7202,"BSTAR":0.00027449623,"MEAN_MOTION_DOT":0.00003384,"MEAN_MOTION_DDOT":0},{"OBJECT_NAME":"LEMUR-2-KRISH","OBJECT_ID":"2025-135AK","EPOCH":"2026-07-08T20:59:50.774208","CLASSIFICATION_TYPE":"U","MEAN_MOTION":14.96414469,"ECCENTRICITY":0.00017546,"INCLINATION":97.7762,"RA_OF_ASC_NODE":304.6053,"ARG_OF_PERICENTER":98.9232,"MEAN_ANOMALY":261.2188,"EPHEMERIS_TYPE":0,"NORAD_CAT_ID":64561,"ELEMENT_SET_NO":999,"REV_AT_EPOCH":5716,"BSTAR":0.00033427778,"MEAN_MOTION_DOT":0.00003731,"MEAN_MOTION_DDOT":0}]}
