LEMUR-2-LEIA-PHILIP     
1 63246U 25052AN  26189.65466518  .00001704  00000+0  15164-3 0  9993
2 63246  97.6816  81.2420 0004961 135.3701 224.7921 14.97380709 71886
LEMUR-2-LIA-MARTIN      
1 63248U 25052AQ  26189.65194362  .00003795  00000+0  32627-3 0  9995
2 63248  97.6868  81.7463 0005340 106.1828 253.9982 14.97991386 71896
LEMUR-2-DELOITTE-1      
1 63259U 25052BB  26189.69813140  .00002354  00000+0  20556-3 0  9991
2 63259  97.6884  82.1233 0002308  66.8273 293.3192 14.97751965 71914
LEMUR-2-EMERSONROSE     
1 63261U 25052BD  26189.65208999  .00003399  00000+0  28348-3 0  9997
2 63261  97.6876  82.6763 0002762  71.2958 288.8564 14.99250910 71957
LEMUR-2-MARACHE-FRAN    
1 63262U 25052BE  26189.94607324  .00002271  00000+0  18602-3 0  9995
2 63262  97.6855  83.3255 0004573 280.3591  79.7117 15.00289249 72027
LEMUR-2-THEFALCONER     
1 63264U 25052BG  26189.92812262  .00002392  00000+0  20994-3 0  9995
2 63264  97.6850  81.9463 0000756  23.3580 336.7677 14.97543375 71946
LEMUR-2-UNTITLED-SC     
1 63351U 25061A   26189.90564413  .00001936  00000+0  11110-3 0  9995
2 63351  97.5647 165.1118 0018551 184.5054 175.6014 15.13619371 70871
LEMUR-2-ESPERANZA       
1 63352U 25061B   26189.88142458  .00002884  00000+0  16319-3 0  9993
2 63352  97.5651 165.1863 0018234 183.8064 176.3032 15.13727556 70878
LEMUR-2-KREMPEL-BRO2    
1 63353U 25061C   26189.90216715  .00002021  00000+0  11407-3 0  9991
2 63353  97.5699 165.7681 0019338 176.4682 183.6690 15.14150560 70894
LEMUR-2-THERMORAPTOR    
1 63354U 25061D   26189.88307153  .00002504  00000+0  14018-3 0  9993
2 63354  97.5706 165.8289 0019099 175.3605 184.7807 15.14233684 70897
LEMUR-2-NEUROSPICY      
1 63355U 25061E   26189.91915303  .00002107  00000+0  11823-3 0  9990
2 63355  97.5633 165.4742 0016827 178.1167 182.0131 15.14352828 70902
LEMUR-2-TILLINFINITY    
1 63356U 25061F   26189.87999242  .00002722  00000+0  14913-3 0  9996
2 63356  97.5618 165.7409 0018428 166.9103 193.2611 15.14936063 70921
LEMUR-2-KREMPEL-BRO1    
1 63357U 25061G   26189.92229627  .00002075  00000+0  11514-3 0  9991
2 63357  97.5618 165.6930 0019058 167.9566 192.2125 15.14744684 70929
LEMUR-2-LANGER2SPACE    
1 63358U 25061H   26189.88708614  .00002619  00000+0  14570-3 0  9994
2 63358  97.5622 165.4631 0016741 176.6297 183.5050 15.14437027 70903
LEMUR-2-BALTO           
1 63395U 25052BH  26189.93061923  .00003384  00000+0  27450-3 0  9997
2 63395  97.6931  83.2927 0005509 352.8014   7.3129 15.00325727 72021
LEMUR-2-KRISH           
1 64561U 25135AK  26189.87489322  .00003731  00000+0  33428-3 0  9993
2 64561  97.7762 304.6053 0001754  98.9232 261.2188 14.96414469 57168
